[{"OBJECT_NAME":"STARLINK-5398","OBJECT_ID":"2022-177AY","EPOCH":"2026-03-09T22:00:01.999584","MEAN_MOTION":15.07643149,"ECCENTRICITY":0.00027169,"INCLINATION":43.0018,"RA_OF_ASC_NODE":118.7174,"ARG_OF_PERICENTER":266.7762,"MEAN_ANOMALY":95.2321,"EPHEMERIS_TYPE":0,"CLASSIFICATION_TYPE":"U","NORAD_CAT_ID":54866,"ELEMENT_SET_NO":999,"REV_AT_EPOCH":562,"BSTAR":0.0039623741,"MEAN_MOTION_DOT":0.00061728,"MEAN_MOTION_DDOT":0},{"OBJECT_NAME":"FENGYUN 1C DEB","OBJECT_ID":"1999-025BBA","EPOCH":"2026-03-08T04:01:46.595424","MEAN_MOTION":14.68382206,"ECCENTRICITY":0.01906782,"INCLINATION":99.0027,"RA_OF_ASC_NODE":196.6188,"ARG_OF_PERICENTER":258.0888,"MEAN_ANOMALY":99.8879,"EPHEMERIS_TYPE":0,"CLASSIFICATION_TYPE":"U","NORAD_CAT_ID":30960,"ELEMENT_SET_NO":999,"REV_AT_EPOCH":99951,"BSTAR":0.0022197351,"MEAN_MOTION_DOT":0.00016894,"MEAN_MOTION_DDOT":0}]
